GLOBALSTAR M057         
1 25943U 99058A   24168.67572985 -.00000080  00000+0  11379-3 0  9996
2 25943  52.0001 305.4907 0001633 356.3333   3.7504 12.24787487122149
GLOBALSTAR M059         
1 25944U 99058B   24169.82528902 -.00000079  00000+0  90839-4 0  9992
2 25944  52.0008 112.8733 0000806 340.1591  55.2116 11.99963061119054
GLOBALSTAR M056         
1 25945U 99058C   24168.87498154 -.00000044  00000+0  50862-3 0  9995
2 25945  51.9944 126.7846 0000464 164.6360 237.7090 12.04776870118597
GLOBALSTAR M031         
1 25946U 99058D   24168.95154333  .00000028  00000+0  12080-2 0  9993
2 25946  51.9981  40.7648 0001667 126.9875 245.8017 12.16010941120115
GLOBALSTAR M039         
1 25961U 99062A   24168.74398583 -.00000057  00000+0  26322-3 0  9997
2 25961  51.9860 301.7565 0002198 243.6630 116.4011 12.62294416134060
GLOBALSTAR M034         
1 25962U 99062B   24168.96320397 -.00000010  00000+0  11270-2 0  9994
2 25962  51.9859 240.7455 0013826  73.6056  97.2981 11.79428335 95291
GLOBALSTAR M029         
1 25963U 99062C   24168.90670177 -.00000072  00000+0  17830-3 0  9990
2 25963  51.9827   3.7100 0003337 111.9165 341.2916 11.99879263125278
GLOBALSTAR M061         
1 25964U 99062D   24168.95093907 -.00000089  00000+0 -14660-3 0  9993
2 25964  51.9809  59.9688 0006501   3.8215   9.0253 11.76761692 78185
